0 ARIANE 5 R/B
1 35944U 09054C   13281.83854446  .00004527  00000-0  12016-2 0  8674
2 35944 003.5390 257.9813 7205761 347.1733 059.7934 02.37689660 34223
0 ARIANE 5 R/B
1 35944U 09054C   13283.17889472  .00004679  00000-0  12002-2 0  8684
2 35944 003.5336 257.3990 7205932 348.3350 126.7360 02.37704624 34250
0 ARIANE 5 R/B
1 35944U 09054C   13283.45285991  .00007783  00000-0  17617-2 0  8698
2 35944 003.5709 257.4053 7208416 348.4535 001.1705 02.37706214 34257
0 ARIANE 5 R/B
1 35944U 09054C   13285.37751861  .00004825  00000-0  11971-2 0  8696
2 35944 003.5244 256.4363 7206308 350.2503 208.2515 02.37721493 34309
0 ARIANE 5 R/B
1 35944U 09054C   13286.65758547  .00005412  00000-0  13422-2 0  8704
2 35944 003.5193 255.8721 7206489 351.3700 223.7721 02.37728483 34334
0 ARIANE 5 R/B
1 35944U 09054C   13287.67431543  .00006168  00000-0  15342-2 0  8714
2 35944 003.5150 255.4244 7206575 352.2612 013.9469 02.37739892 34368
0 ARIANE 5 R/B
1 35944U 09054C   13288.36041417  .00005859  00000-0  14564-2 0  8720
2 35944 003.5121 255.1227 7206750 352.8597 241.1612 02.37746149 34376
0 ARIANE 5 R/B
1 35944U 09054C   13289.86725164  .00005827  00000-0  14513-2 0  8734
2 35944 003.5057 254.4574 7206977 354.1803 090.8974 02.37763514 34417
0 ARIANE 5 R/B
1 35944U 09054C   13292.44395970  .00005582  00000-0  13314-2 0  8747
2 35944 003.4984 253.3506 7207956 356.4059 136.5580 02.37792783 34471
0 ARIANE 5 R/B
1 35944U 09054C   13294.64591852  .00006800  00000-0  15388-2 0  8756
2 35944 003.4883 252.3664 7208386 358.3481 221.6515 02.37818659 34522
